{
  "type": "FeatureCollection",
  "crs": { "type": "name", "properties": { "name": "urn:ogc:def:crs:OGC:1.3:CRS84" } },
  "features": [
    {
      "type": "Feature",
      "properties": { "id": 1, "name": "Jakarta", "population": 10560000 },
      "geometry": { "type": "Point", "coordinates": [106.8456, -6.2088] }
    },
    {
      "type": "Feature",
      "properties": { "id": 2, "name": "Bandung", "population": 2450000 },
      "geometry": { "type": "Point", "coordinates": [107.6191, -6.9175] }
    },
    {
      "type": "Feature",
      "properties": { "id": 3, "name": "Surabaya", "population": 2870000 },
      "geometry": { "type": "Point", "coordinates": [112.7521, -7.2575] }
    },
    {
      "type": "Feature",
      "properties": { "id": 4, "name": "Yogyakarta", "population": 422000 },
      "geometry": { "type": "Point", "coordinates": [110.3695, -7.7956] }
    },
    {
      "type": "Feature",
      "properties": { "id": 5, "name": "Medan", "population": 2435000 },
      "geometry": { "type": "Point", "coordinates": [98.6785, 3.5952] }
    }
  ]
}
